start=new Date('2022-10-31T00:00:00.000Z').valueOf();
sats=[{"OBJECT_NAME":"STARLINK-4002","REV_AT_EPOCH":"2576","LAUNCH_DATE":"2022-05-14","TIME_SYSTEM":"UTC","ELEMENT_SET_NO":"999","SITE":"AFETR","MEAN_MOTION":"15.08831470","APOAPSIS":"541.285","NORAD_CAT_ID":"52612","CLASSIFICATION_TYPE":"U","OBJECT_TYPE":"PAYLOAD","EPOCH":"2022-10-30T14:29:09.869280","SEMIMAJOR_AXIS":"6917.906","BSTAR":"-0.00020261000000","DECAY_DATE":null,"OBJECT_ID":"2022-052Q","MEAN_MOTION_DOT":"-0.00003511","MEAN_MOTION_DDOT":"0.0000000000000","RCS_SIZE":"LARGE","PERIAPSIS":"538.258","ECCENTRICITY":"0.00021880","REF_FRAME":"TEME","CENTER_NAME":"EARTH","PERIOD":"95.438","MEAN_ANOMALY":"320.5241","INCLINATION":"53.2185","MEAN_ELEMENT_THEORY":"SGP4","ARG_OF_PERICENTER":"39.5910","EPHEMERIS_TYPE":"0","TLE_LINE1":"1 52612U 22052Q   22303.60358645 -.00003511  00000-0 -20261-3 0  9990","GP_ID":"216531160","COUNTRY_CODE":"US","TLE_LINE2":"2 52612  53.2185  23.2412 0002188  39.5910 320.5241 15.08831470 25766","FILE":"3637924","RA_OF_ASC_NODE":"23.2412"},{"NORAD_CAT_ID":"52613","APOAPSIS":"541.050","SITE":"AFETR","MEAN_MOTION":"15.08850435","ELEMENT_SET_NO":"999","LAUNCH_DATE":"2022-05-14","TIME_SYSTEM":"UTC","REV_AT_EPOCH":"2589","OBJECT_NAME":"STARLINK-3921","OBJECT_ID":"2022-052R","DECAY_DATE":null,"BSTAR":"0.00002774600000","SEMIMAJOR_AXIS":"6917.848","EPOCH":"2022-10-30T14:03:58.225248","CLASSIFICATION_TYPE":"U","OBJECT_TYPE":"PAYLOAD","EPHEMERIS_TYPE":"0","ARG_OF_PERICENTER":"42.5334","MEAN_ELEMENT_THEORY":"SGP4","PERIOD":"95.437","MEAN_ANOMALY":"317.5808","INCLINATION":"53.2168","CENTER_NAME":"EARTH","REF_FRAME":"TEME","ECCENTRICITY":"0.00019320","MEAN_MOTION_DDOT":"0.0000000000000","MEAN_MOTION_DOT":"0.00000154","PERIAPSIS":"538.377","RCS_SIZE":"LARGE","RA_OF_ASC_NODE":"13.3052","FILE":"3637924","GP_ID":"216531910","TLE_LINE2":"2 52613  53.2168  13.3052 0001932  42.5334 317.5808 15.08850435 25899","COUNTRY_CODE":"US","TLE_LINE1":"1 52613U 22052R   22303.58609057  .00000154  00000-0  27746-4 0  9998"},{"INCLINATION":"53.2181","PERIOD":"95.438","MEAN_ANOMALY":"319.5720","CENTER_NAME":"EARTH","EPHEMERIS_TYPE":"0","ARG_OF_PERICENTER":"40.5423","MEAN_ELEMENT_THEORY":"SGP4","ECCENTRICITY":"0.00020280","RCS_SIZE":"LARGE","PERIAPSIS":"538.351","MEAN_MOTION_DOT":"0.00002524","MEAN_MOTION_DDOT":"0.0000000000000","REF_FRAME":"TEME","RA_OF_ASC_NODE":"13.2928","TLE_LINE1":"1 52614U 22052S   22303.58978088  .00002524  00000-0  17661-3 0  9999","FILE":"3637924","TLE_LINE2":"2 52614  53.2181  13.2928 0002028  40.5423 319.5720 15.08837272 25899","COUNTRY_CODE":"US","GP_ID":"216530403","APOAPSIS":"541.157","NORAD_CAT_ID":"52614","REV_AT_EPOCH":"2589","OBJECT_NAME":"STARLINK-3982","SITE":"AFETR","ELEMENT_SET_NO":"999","MEAN_MOTION":"15.08837272","TIME_SYSTEM":"UTC","LAUNCH_DATE":"2022-05-14","BSTAR":"0.00017661000000","OBJECT_ID":"2022-052S","DECAY_DATE":null,"OBJECT_TYPE":"PAYLOAD","CLASSIFICATION_TYPE":"U","SEMIMAJOR_AXIS":"6917.889","EPOCH":"2022-10-30T14:09:17.068032"},{"SEMIMAJOR_AXIS":"6917.885","EPOCH":"2022-10-30T21:40:23.075904","OBJECT_TYPE":"PAYLOAD","CLASSIFICATION_TYPE":"U","OBJECT_ID":"2022-052T","DECAY_DATE":null,"BSTAR":"0.00004805800000","SITE":"AFETR","ELEMENT_SET_NO":"999","MEAN_MOTION":"15.08838603","TIME_SYSTEM":"UTC","LAUNCH_DATE":"2022-05-14","REV_AT_EPOCH":"2572","OBJECT_NAME":"STARLINK-4011","NORAD_CAT_ID":"52615","APOAPSIS":"541.279","FILE":"3637924","TLE_LINE2":"2 52615  53.2185  26.8832 0002210  33.3403 326.7728 15.08838603 25728","COUNTRY_CODE":"US","GP_ID":"216531148","TLE_LINE1":"1 52615U 22052T   22303.90304486  .00000477  00000-0  48058-4 0  9991","RA_OF_ASC_NODE":"26.8832","REF_FRAME":"TEME","ECCENTRICITY":"0.00022100","RCS_SIZE":"LARGE","PERIAPSIS":"538.221","MEAN_MOTION_DDOT":"0.0000000000000","MEAN_MOTION_DOT":"0.00000477","ARG_OF_PERICENTER":"33.3403","EPHEMERIS_TYPE":"0","MEAN_ELEMENT_THEORY":"SGP4","MEAN_ANOMALY":"326.7728","PERIOD":"95.438","INCLINATION":"53.2185","CENTER_NAME":"EARTH"},{"OBJECT_ID":"2022-052U","DECAY_DATE":null,"BSTAR":"-0.00015240000000","SEMIMAJOR_AXIS":"6917.920","EPOCH":"2022-10-30T17:09:28.246464","OBJECT_TYPE":"PAYLOAD","CLASSIFICATION_TYPE":"U","NORAD_CAT_ID":"52616","APOAPSIS":"541.493","SITE":"AFETR","MEAN_MOTION":"15.08827005","ELEMENT_SET_NO":"999","TIME_SYSTEM":"UTC","LAUNCH_DATE":"2022-05-14","REV_AT_EPOCH":"2591","OBJECT_NAME":"STARLINK-4015","RA_OF_ASC_NODE":"12.7352","FILE":"3637924","TLE_LINE2":"2 52616  53.2173  12.7352 0002469  36.7547 323.3614 15.08827005 25911","COUNTRY_CODE":"US","GP_ID":"216531578","TLE_LINE1":"1 52616U 22052U   22303.71491026 -.00002712  00000-0 -15240-3 0  9990","ARG_OF_PERICENTER":"36.7547","EPHEMERIS_TYPE":"0","MEAN_ELEMENT_THEORY":"SGP4","MEAN_ANOMALY":"323.3614","PERIOD":"95.438","INCLINATION":"53.2173","CENTER_NAME":"EARTH","REF_FRAME":"TEME","ECCENTRICITY":"0.00024690","PERIAPSIS":"538.077","RCS_SIZE":"LARGE","MEAN_MOTION_DDOT":"0.0000000000000","MEAN_MOTION_DOT":"-0.00002712"},{"NORAD_CAT_ID":"52617","APOAPSIS":"541.044","LAUNCH_DATE":"2022-05-14","TIME_SYSTEM":"UTC","SITE":"AFETR","ELEMENT_SET_NO":"999","MEAN_MOTION":"15.08823312","OBJECT_NAME":"STARLINK-3996","REV_AT_EPOCH":"2588","DECAY_DATE":null,"OBJECT_ID":"2022-052V","BSTAR":"0.00016146000000","EPOCH":"2022-10-30T13:48:05.944320","SEMIMAJOR_AXIS":"6917.931","CLASSIFICATION_TYPE":"U","OBJECT_TYPE":"PAYLOAD","MEAN_ELEMENT_THEORY":"SGP4","EPHEMERIS_TYPE":"0","ARG_OF_PERICENTER":"38.2769","CENTER_NAME":"EARTH","MEAN_ANOMALY":"321.8351","PERIOD":"95.439","INCLINATION":"53.2187","REF_FRAME":"TEME","MEAN_MOTION_DOT":"0.00002281","MEAN_MOTION_DDOT":"0.0000000000000","RCS_SIZE":"LARGE","PERIAPSIS":"538.549","ECCENTRICITY":"0.00018030","RA_OF_ASC_NODE":"13.3572","GP_ID":"216531493","TLE_LINE2":"2 52617  53.2187  13.3572 0001803  38.2769 321.8351 15.08823312 25886","COUNTRY_CODE":"US","FILE":"3637924","TLE_LINE1":"1 52617U 22052V   22303.57506880  .00002281  00000-0  16146-3 0  9995"},{"ELEMENT_SET_NO":"999","SITE":"AFETR","MEAN_MOTION":"15.08828362","TIME_SYSTEM":"UTC","LAUNCH_DATE":"2022-05-14","REV_AT_EPOCH":"2588","OBJECT_NAME":"STARLINK-3983","NORAD_CAT_ID":"52618","APOAPSIS":"541.532","SEMIMAJOR_AXIS":"6917.916","EPOCH":"2022-10-30T13:53:23.881632","OBJECT_TYPE":"PAYLOAD","CLASSIFICATION_TYPE":"U","OBJECT_ID":"2022-052W","DECAY_DATE":null,"BSTAR":"-0.00000714350000","REF_FRAME":"TEME","ECCENTRICITY":"0.00025310","PERIAPSIS":"538.030","RCS_SIZE":"LARGE","MEAN_MOTION_DDOT":"0.0000000000000","MEAN_MOTION_DOT":"-0.00000402","ARG_OF_PERICENTER":"29.1287","EPHEMERIS_TYPE":"0","MEAN_ELEMENT_THEORY":"SGP4","INCLINATION":"53.2164","PERIOD":"95.438","MEAN_ANOMALY":"330.9846","CENTER_NAME":"EARTH","FILE":"3637924","TLE_LINE2":"2 52618  53.2164  13.3581 0002531  29.1287 330.9846 15.08828362 25885","COUNTRY_CODE":"US","GP_ID":"216530903","TLE_LINE1":"1 52618U 22052W   22303.57874863 -.00000402  00000-0 -71435-5 0  9994","RA_OF_ASC_NODE":"13.3581"},{"CLASSIFICATION_TYPE":"U","OBJECT_TYPE":"PAYLOAD","SEMIMAJOR_AXIS":"6917.896","EPOCH":"2022-10-30T16:54:56.594016","BSTAR":"-0.00004867600000","OBJECT_ID":"2022-052X","DECAY_DATE":null,"REV_AT_EPOCH":"2590","OBJECT_NAME":"STARLINK-3741","MEAN_MOTION":"15.08834995","SITE":"AFETR","ELEMENT_SET_NO":"999","LAUNCH_DATE":"2022-05-14","TIME_SYSTEM":"UTC","APOAPSIS":"541.411","NORAD_CAT_ID":"52619","TLE_LINE1":"1 52619U 22052X   22303.70482169 -.00001063  00000-0 -48676-4 0  9998","FILE":"3637924","GP_ID":"216531566","TLE_LINE2":"2 52619  53.2198  12.7893 0002385  32.0300 328.0836 15.08834995 25907","COUNTRY_CODE":"US","RA_OF_ASC_NODE":"12.7893","ECCENTRICITY":"0.00023850","MEAN_MOTION_DDOT":"0.0000000000000","MEAN_MOTION_DOT":"-0.00001063","RCS_SIZE":"LARGE","PERIAPSIS":"538.111","REF_FRAME":"TEME","MEAN_ANOMALY":"328.0836","PERIOD":"95.438","INCLINATION":"53.2198","CENTER_NAME":"EARTH","EPHEMERIS_TYPE":"0","ARG_OF_PERICENTER":"32.0300","MEAN_ELEMENT_THEORY":"SGP4"},{"MEAN_ELEMENT_THEORY":"SGP4","EPHEMERIS_TYPE":"0","ARG_OF_PERICENTER":"47.7573","CENTER_NAME":"EARTH","PERIOD":"95.438","MEAN_ANOMALY":"312.3602","INCLINATION":"53.2187","REF_FRAME":"TEME","MEAN_MOTION_DDOT":"0.0000000000000","MEAN_MOTION_DOT":"-0.00000173","PERIAPSIS":"538.247","RCS_SIZE":"LARGE","ECCENTRICITY":"0.00021630","RA_OF_ASC_NODE":"28.0906","GP_ID":"216531161","TLE_LINE2":"2 52620  53.2187  28.0906 0002163  47.7573 312.3602 15.08840584 25684","COUNTRY_CODE":"US","FILE":"3637924","TLE_LINE1":"1 52620U 22052Y   22303.63439389 -.00000173  00000-0  72662-5 0  9991","NORAD_CAT_ID":"52620","APOAPSIS":"541.240","LAUNCH_DATE":"2022-05-14","TIME_SYSTEM":"UTC","SITE":"AFETR","MEAN_MOTION":"15.08840584","ELEMENT_SET_NO":"999","OBJECT_NAME":"STARLINK-3975","REV_AT_EPOCH":"2568","DECAY_DATE":null,"OBJECT_ID":"2022-052Y","BSTAR":"0.00000726620000","EPOCH":"2022-10-30T15:13:31.632096","SEMIMAJOR_AXIS":"6917.879","CLASSIFICATION_TYPE":"U","OBJECT_TYPE":"PAYLOAD"},{"SITE":"AFETR","ELEMENT_SET_NO":"999","MEAN_MOTION":"15.08852558","TIME_SYSTEM":"UTC","LAUNCH_DATE":"2022-05-14","REV_AT_EPOCH":"2587","OBJECT_NAME":"STARLINK-3984","NORAD_CAT_ID":"52621","APOAPSIS":"541.135","SEMIMAJOR_AXIS":"6917.842","EPOCH":"2022-10-30T11:56:46.918464","OBJECT_TYPE":"PAYLOAD","CLASSIFICATION_TYPE":"U","OBJECT_ID":"2022-052Z","DECAY_DATE":null,"BSTAR":"0.00005560400000","REF_FRAME":"TEME","ECCENTRICITY":"0.00020640","RCS_SIZE":"LARGE","PERIAPSIS":"538.279","MEAN_MOTION_DDOT":"0.0000000000000","MEAN_MOTION_DOT":"0.00000597","ARG_OF_PERICENTER":"36.5984","EPHEMERIS_TYPE":"0","MEAN_ELEMENT_THEORY":"SGP4","INCLINATION":"53.2176","PERIOD":"95.437","MEAN_ANOMALY":"323.5149","CENTER_NAME":"EARTH","FILE":"3637867","TLE_LINE2":"2 52621  53.2176  13.7207 0002064  36.5984 323.5149 15.08852558 25875","COUNTRY_CODE":"US","GP_ID":"216505914","TLE_LINE1":"1 52621U 22052Z   22303.49776526  .00000597  00000-0  55604-4 0  9998","RA_OF_ASC_NODE":"13.7207"}];
